NORAD_CAT_ID,OBJECT_NAME,OBJECT_TYPE,EPOCH,MEAN_MOTION,ECCENTRICITY,INCLINATION,RA_OF_ASC_NODE,ARG_OF_PERICENTER,MEAN_ANOMALY,BSTAR,MEAN_MOTION_DOT,MEAN_MOTION_DDOT,TLE_LINE0,TLE_LINE1,TLE_LINE2,SEMIMAJOR_AXIS,PERIOD,APOGEE,PERIGEE,DECAYED
53913.0,STARLINK-5053,PAYLOAD,2023-11-19 11:56:25,15.08839421,0.0001319,53.2164,130.3636,91.74,268.3744,7.3923e-05,8.89e-06,0.0,0 STARLINK-5053,1 53913U 22119AD  23323.49751368  .00000889  00000-0  73923-4 0  9995,2 53913  53.2164 130.3636 0001319  91.7400 268.3744 15.08839421 64837,6917.882,95.438,540.66,538.835,0.0
53913.0,STARLINK-5053,PAYLOAD,2023-11-19 18:17:57,15.08841437,0.0001302,53.2168,129.1743,91.5448,268.5694,8.5314e-05,1.07e-05,0.0,0 STARLINK-5053,1 53913U 22119AD  23323.76247216  .00001070  00000-0  85314-4 0  9997,2 53913  53.2168 129.1743 0001302  91.5448 268.5694 15.08841437 64878,6917.876,95.437,540.642,538.84,0.0
53913.0,STARLINK-5053,PAYLOAD,2023-11-20 10:11:49,15.08838001,0.0001307,53.217,126.2013,93.2182,266.896,5.4601e-05,5.81e-06,0.0,0 STARLINK-5053,1 53913U 22119AD  23324.42487566  .00000581  00000-0  54601-4 0  9996,2 53913  53.2170 126.2013 0001307  93.2182 266.8960 15.08838001 64553,6917.886,95.438,540.656,538.847,0.0
53913.0,STARLINK-5053,PAYLOAD,2023-11-20 11:47:12,15.08837481,0.0001318,53.217,125.9036,91.6723,268.442,4.7816e-05,4.73e-06,0.0,0 STARLINK-5053,1 53913U 22119AD  23324.49111650  .00000473  00000-0  47816-4 0  9991,2 53913  53.2170 125.9036 0001318  91.6723 268.4420 15.08837481 64986,6917.888,95.438,540.665,538.841,0.0
53913.0,STARLINK-5053,PAYLOAD,2023-11-20 18:08:45,15.08838116,0.0001313,53.2174,124.7143,91.1192,268.9951,4.6774e-05,4.57e-06,0.0,0 STARLINK-5053,1 53913U 22119AD  23324.75607650  .00000457  00000-0  46774-4 0  9994,2 53913  53.2174 124.7143 0001313  91.1192 268.9951 15.08838116 65022,6917.886,95.438,540.659,538.843,0.0
53913.0,STARLINK-5053,PAYLOAD,2023-11-21 11:37:59,15.08841227,0.0001316,53.2175,121.4431,87.4703,272.644,5.5225e-05,5.91e-06,0.0,0 STARLINK-5053,1 53913U 22119AD  23325.48471513  .00000591  00000-0  55225-4 0  9992,2 53913  53.2175 121.4431 0001316  87.4703 272.6440 15.08841227 64713,6917.877,95.437,540.652,538.831,0.0
53913.0,STARLINK-5053,PAYLOAD,2023-11-21 17:59:31,15.08846166,0.0001327,53.2177,120.2537,87.0247,273.0897,8.5343e-05,1.071e-05,0.0,0 STARLINK-5053,1 53913U 22119AD  23325.74967121  .00001071  00000-0  85343-4 0  9994,2 53913  53.2177 120.2537 0001327  87.0247 273.0897 15.08846166 65179,6917.862,95.437,540.645,538.809,0.0
53913.0,STARLINK-5053,PAYLOAD,2023-11-22 14:39:32,15.08845254,0.0001367,53.2181,116.3884,86.6949,273.4199,0.0001189,1.605e-05,0.0,0 STARLINK-5053,1 53913U 22119AD  23326.61079061  .00001605  00000-0  11890-3 0  9996,2 53913  53.2181 116.3884 0001367  86.6949 273.4199 15.08845254 65304,6917.864,95.437,540.675,538.784,0.0
53913.0,STARLINK-5053,PAYLOAD,2023-11-22 17:50:18,15.08850202,0.0001408,53.2181,115.7934,86.2245,273.8908,0.00016089,2.274e-05,0.0,0 STARLINK-5053,1 53913U 22119AD  23326.74326638  .00002274  00000-0  16089-3 0  9993,2 53913  53.2181 115.7934 0001408  86.2245 273.8908 15.08850202 64900,6917.849,95.437,540.688,538.74,0.0
53913.0,STARLINK-5053,PAYLOAD,2023-11-23 09:44:10,15.08836349,0.0001419,53.2187,112.8201,96.8466,263.2688,8.3389e-06,-1.55e-06,0.0,0 STARLINK-5053,1 53913U 22119AD  23327.40568009 -.00000155  00000-0  83389-5 0  9993,2 53913  53.2187 112.8201 0001419  96.8466 263.2688 15.08836349 65001,6917.892,95.438,540.738,538.775,0.0
53913.0,STARLINK-5053,PAYLOAD,2023-11-23 14:30:20,15.0883335,0.0001509,53.2175,111.928,89.8168,270.2997,-4.0673e-05,-9.35e-06,0.0,0 STARLINK-5053,1 53913U 22119AD  23327.60439989 -.00000935  00000-0 -40673-4 0  9994,2 53913  53.2175 111.9280 0001509  89.8168 270.2997 15.08833350 65455,6917.901,95.438,540.81,538.722,0.0
53913.0,STARLINK-5053,PAYLOAD,2023-11-23 16:05:43,15.0883348,0.0001456,53.2175,111.6305,92.2231,267.8927,-5.5566e-05,-1.172e-05,0.0,0 STARLINK-5053,1 53913U 22119AD  23327.67063987 -.00001172  00000-0 -55566-4 0  9993,2 53913  53.2175 111.6305 0001456  92.2231 267.8927 15.08833480 65460,6917.9,95.438,540.773,538.758,0.0
53913.0,STARLINK-5053,PAYLOAD,2023-11-24 14:21:07,15.08840124,0.0001529,53.2177,107.4681,93.1677,266.949,0.00010234,1.341e-05,0.0,0 STARLINK-5053,1 53913U 22119AD  23328.59800088  .00001341  00000-0  10234-3 0  9994,2 53913  53.2177 107.4681 0001529  93.1677 266.9490 15.08840124 65601,6917.88,95.438,540.803,538.687,0.0
53913.0,STARLINK-5053,PAYLOAD,2023-11-24 15:56:30,15.08841679,0.0001542,53.2177,107.1708,90.8676,269.2493,0.00012034,1.628e-05,0.0,0 STARLINK-5053,1 53913U 22119AD  23328.66424041  .00001628  00000-0  12034-3 0  9991,2 53913  53.2177 107.1708 0001542  90.8676 269.2493 15.08841679 65195,6917.875,95.437,540.807,538.674,0.0
53913.0,STARLINK-5053,PAYLOAD,2023-11-25 14:11:54,15.08846319,0.0001578,53.2179,103.0076,98.7962,261.3209,0.0002909,4.345e-05,0.0,0 STARLINK-5053,1 53913U 22119AD  23329.59159915  .00004345  00000-0  29090-3 0  9998,2 53913  53.2179 103.0076 0001578  98.7962 261.3209 15.08846319 65750,6917.861,95.437,540.818,538.634,0.0
53913.0,STARLINK-5053,PAYLOAD,2023-11-25 15:47:17,15.08849283,0.0001612,53.218,102.7104,99.2976,260.8199,0.00033032,4.974e-05,0.0,0 STARLINK-5053,1 53913U 22119AD  23329.65783779  .00004974  00000-0  33032-3 0  9995,2 53913  53.2180 102.7104 0001612  99.2976 260.8199 15.08849283 65766,6917.852,95.437,540.832,538.602,0.0
53913.0,STARLINK-5053,PAYLOAD,2023-11-26 09:16:31,15.08853567,0.00016,53.2179,99.4389,92.7613,267.3562,0.00018799,2.706e-05,0.0,0 STARLINK-5053,1 53913U 22119AD  23330.38647165  .00002706  00000-0  18799-3 0  9999,2 53913  53.2179  99.4389 0001600  92.7613 267.3562 15.08853567 65456,6917.839,95.437,540.811,538.597,0.0
53913.0,STARLINK-5053,PAYLOAD,2023-11-26 14:02:40,15.08838325,0.0001481,53.2182,98.5469,81.7078,278.4082,-5.8987e-05,-1.227e-05,0.0,0 STARLINK-5053,1 53913U 22119AD  23330.58519650 -.00001227  00000-0 -58987-4 0  9991,2 53913  53.2182  98.5469 0001481  81.7078 278.4082 15.08838325 65904,6917.886,95.438,540.775,538.726,0.0
53913.0,STARLINK-5053,PAYLOAD,2023-11-26 15:38:03,15.08854046,0.0001564,53.2178,98.2494,91.5828,268.5343,0.00016523,2.344e-05,0.0,0 STARLINK-5053,1 53913U 22119AD  23330.65142908  .00002344  00000-0  16523-3 0  9995,2 53913  53.2178  98.2494 0001564  91.5828 268.5343 15.08854046 65917,6917.837,95.437,540.784,538.621,0.0
53913.0,STARLINK-5053,PAYLOAD,2023-11-27 12:18:05,15.08830948,0.0001555,53.2189,94.3829,97.3167,262.8002,-0.00018238,-3.189e-05,0.0,0 STARLINK-5053,1 53913U 22119AD  23331.51256111 -.00003189  00000-0 -18238-3 0  9998,2 53913  53.2189  94.3829 0001555  97.3167 262.8002 15.08830948 65620,6917.908,95.438,540.849,538.697,0.0
53913.0,STARLINK-5053,PAYLOAD,2023-11-27 13:53:28,15.08829875,0.0001522,53.2186,94.0851,99.1403,260.9761,-0.00019491,-3.388e-05,0.0,0 STARLINK-5053,1 53913U 22119AD  23331.57880187 -.00003388  00000-0 -19491-3 0  9993,2 53913  53.2186  94.0851 0001522  99.1403 260.9761 15.08829875 66052,6917.911,95.438,540.829,538.723,0.0
53913.0,STARLINK-5053,PAYLOAD,2023-11-27 15:28:51,15.08837331,0.0001396,53.2185,93.7898,83.1057,277.0094,-0.00012466,-2.271e-05,0.0,0 STARLINK-5053,1 53913U 22119AD  23331.64503817 -.00002271  00000-0 -12466-3 0  9998,2 53913  53.2185  93.7898 0001396  83.1057 277.0094 15.08837331 66060,6917.889,95.438,540.719,538.788,0.0
53913.0,STARLINK-5053,PAYLOAD,2023-11-28 12:08:50,15.08878704,0.000141,53.2191,89.9243,94.7327,265.3827,0.00057656,8.91e-05,0.0,0 STARLINK-5053,1 53913U 22119AD  23332.50613698  .00008910  00000-0  57656-3 0  9997,2 53913  53.2191  89.9243 0001410  94.7327 265.3827 15.08878704 65773,6917.762,95.435,540.602,538.652,0.0
53913.0,STARLINK-5053,PAYLOAD,2023-11-28 13:44:15,15.08833061,0.0002256,53.2192,89.6271,130.3525,229.7665,-0.00014611,-2.613e-05,0.0,0 STARLINK-5053,1 53913U 22119AD  23332.57239656 -.00002613  00000-0 -14611-3 0  9992,2 53913  53.2192  89.6271 0002256 130.3525 229.7665 15.08833061 66208,6917.902,95.438,541.327,538.206,0.0
53913.0,STARLINK-5053,PAYLOAD,2023-11-28 15:19:38,15.08823593,0.0001556,53.2181,89.3272,80.7565,279.3603,-0.00021928,-3.775e-05,0.0,0 STARLINK-5053,1 53913U 22119AD  23332.63864327 -.00003775  00000-0 -21928-3 0  9997,2 53913  53.2181  89.3272 0001556  80.7565 279.3603 15.08823593 65793,6917.931,95.439,540.872,538.719,0.0
53913.0,STARLINK-5053,PAYLOAD,2023-11-29 11:59:39,15.08830598,0.0001383,53.2171,85.4599,85.9476,274.1674,6.8026e-05,7.95e-06,0.0,0 STARLINK-5053,1 53913U 22119AD  23333.49976504  .00000795  00000-0  68026-4 0  9991,2 53913  53.2171  85.4599 0001383  85.9476 274.1674 15.08830598 65926,6917.909,95.438,540.731,538.817,0.0
53913.0,STARLINK-5053,PAYLOAD,2023-11-29 13:35:02,15.08845806,0.0001438,53.2171,85.1636,76.3151,283.8001,0.00030675,4.598e-05,0.0,0 STARLINK-5053,1 53913U 22119AD  23333.56600130  .00004598  00000-0  30675-3 0  9991,2 53913  53.2171  85.1636 0001438  76.3151 283.8001 15.08845806 66357,6917.863,95.437,540.722,538.733,0.0
53913.0,STARLINK-5053,PAYLOAD,2023-11-29 15:10:25,15.0884634,0.0001487,53.2176,84.8677,87.4616,272.6547,0.00030421,4.558e-05,0.0,0 STARLINK-5053,1 53913U 22119AD  23333.63224066  .00004558  00000-0  30421-3 0  9994,2 53913  53.2176  84.8677 0001487  87.4616 272.6547 15.08846340 65945,6917.861,95.437,540.755,538.697,0.0
53913.0,STARLINK-5053,PAYLOAD,2023-11-30 11:50:26,15.08837317,0.0001285,53.218,81.002,78.6606,281.4531,-0.0003947,-6.564e-05,0.0,0 STARLINK-5053,1 53913U 22119AD  23334.49335885 -.00006564  00000-0 -39470-3 0  9995,2 53913  53.2180  81.0020 0001285  78.6606 281.4531 15.08837317 66078,6917.889,95.438,540.643,538.865,0.0
53913.0,STARLINK-5053,PAYLOAD,2023-12-01 13:16:37,15.08841636,0.0002128,53.2175,76.2531,58.5981,301.5219,7.8782e-05,9.66e-06,0.0,0 STARLINK-5053,1 53913U 22119AD  23335.55320867  .00000966  00000-0  78782-4 0  9995,2 53913  53.2175  76.2531 0002128  58.5981 301.5219 15.08841636 66239,6917.875,95.437,541.213,538.268,0.0
